[{"icaoId":"KBWI","receiptTime":"2025-09-22T02:09:59.582Z","obsTime":1758506040,"reportTime":"2025-09-22T02:00:00.000Z","temp":19.4,"dewp":13.3,"wdir":100,"wspd":7,"visib":"10+","altim":1022.4,"slp":1022.1,"qcField":4,"metarType":"METAR","rawOb":"METAR KBWI 220154Z 10007KT 10SM OVC035 19/13 A3019 RMK AO2 SLP221 T01940133","lat":39.1733,"lon":-76.684,"elev":42,"name":"Baltimore-Washington Intl, MD, US","cover":"OVC","clouds":[{"cover":"OVC","base":3500}],"fltCat":"VFR"}]