[{"icaoId":"KDCA","receiptTime":"2025-09-22T02:54:04.708Z","obsTime":1758509520,"reportTime":"2025-09-22T03:00:00.000Z","temp":20,"dewp":15,"wdir":160,"wspd":5,"visib":"10+","altim":1022.4,"slp":1022.2,"qcField":4,"presTend":0.6,"metarType":"METAR","rawOb":"METAR KDCA 220252Z 16005KT 10SM SCT030 OVC041 20/15 A3019 RMK AO2 SLP222 T02000150 51006","lat":38.8472,"lon":-77.0345,"elev":4,"name":"Washington/Reagan-National Arpt, VA, US","cover":"OVC","clouds":[{"cover":"SCT","base":3000},{"cover":"OVC","base":4100}],"fltCat":"VFR"}]