[{"icaoId":"KPHL","receiptTime":"2025-09-22T02:16:01.381Z","obsTime":1758506040,"reportTime":"2025-09-22T02:00:00.000Z","temp":17.2,"dewp":10.6,"wdir":150,"wspd":3,"visib":"10+","altim":1023.5,"slp":1023.2,"qcField":12,"metarType":"METAR","rawOb":"METAR KPHL 220154Z 15003KT 10SM SCT250 17/11 A3022 RMK AO2 SLP232 T01720106 $","lat":39.8733,"lon":-75.2268,"elev":2,"name":"Philadelphia Intl, PA, US","cover":"SCT","clouds":[{"cover":"SCT","base":25000}],"fltCat":"VFR"}]